{
  "type": "FeatureCollection",
  "features": [
    {
      "type": "Feature",
      "properties": {
        "norad_id": 37998,
        "name": "COSMOS 2251 DEB",
        "group": "cosmos-2251-debris",
        "lat": 14.271686619269328,
        "lon": 68.53878060913844,
        "alt_km": 754.7559752659272,
        "timestamp": "2025-12-03T06:58:43.640032+00:00",
        "meta_object_name": "COSMOS 2251 DEB",
        "meta_object_id": "1993-036BQZ",
        "meta_epoch": "2025-11-29T12:31:01.771392",
        "meta_mean_motion": 14.45395467,
        "meta_eccentricity": 0.00197878,
        "meta_inclination": 74.0369,
        "meta_ra_of_asc_node": 259.7366,
        "meta_arg_of_pericenter": 336.2714,
        "meta_mean_anomaly": 23.753,
        "meta_ephemeris_type": 0,
        "meta_classification_type": "U",
        "meta_norad_cat_id": 37998,
        "meta_element_set_no": 999,
        "meta_rev_at_epoch": 64096,
        "meta_bstar": 0.00059073677,
        "meta_mean_motion_dot": 2.057e-05,
        "meta_mean_motion_ddot": 0,
        "tle_line1": "1 37998U 93036BQZ 25333.52154828  .00002057  00000+0  59074-3 0  9999",
        "tle_line2": "2 37998  74.0369 259.7366 0019787 336.2714  23.7530 14.45395467640966"
      },
      "geometry": {
        "type": "Point",
        "coordinates": [
          68.53878060913844,
          14.271686619269328
        ]
      }
    },
    {
      "type": "Feature",
      "properties": {
        "norad_id": 38001,
        "name": "COSMOS 2251 DEB",
        "group": "cosmos-2251-debris",
        "lat": 59.21259049756603,
        "lon": 179.74208921746305,
        "alt_km": 650.2240288045859,
        "timestamp": "2025-12-03T06:58:43.640042+00:00",
        "meta_object_name": "COSMOS 2251 DEB",
        "meta_object_id": "1993-036BRC",
        "meta_epoch": "2025-12-01T22:54:46.080864",
        "meta_mean_motion": 14.78884887,
        "meta_eccentricity": 0.0065155,
        "meta_inclination": 73.9989,
        "meta_ra_of_asc_node": 153.583,
        "meta_arg_of_pericenter": 305.0711,
        "meta_mean_anomaly": 207.3288,
        "meta_ephemeris_type": 0,
        "meta_classification_type": "U",
        "meta_norad_cat_id": 38001,
        "meta_element_set_no": 999,
        "meta_rev_at_epoch": 74548,
        "meta_bstar": 0.00075739736,
        "meta_mean_motion_dot": 5.752e-05,
        "meta_mean_motion_ddot": 0,
        "tle_line1": "1 38001U 93036BRC 25335.95470001  .00005752  00000+0  75740-3 0  9991",
        "tle_line2": "2 38001  73.9989 153.5830 0065155 305.0711 207.3288 14.78884887745484"
      },
      "geometry": {
        "type": "Point",
        "coordinates": [
          179.74208921746305,
          59.21259049756603
        ]
      }
    },
    {
      "type": "Feature",
      "properties": {
        "norad_id": 38006,
        "name": "COSMOS 2251 DEB",
        "group": "cosmos-2251-debris",
        "lat": -45.99827989741148,
        "lon": 38.39172630380952,
        "alt_km": 715.8840061580377,
        "timestamp": "2025-12-03T06:58:43.640053+00:00",
        "meta_object_name": "COSMOS 2251 DEB",
        "meta_object_id": "1993-036BRH",
        "meta_epoch": "2025-12-01T12:00:57.044736",
        "meta_mean_motion": 14.45530874,
        "meta_eccentricity": 0.00745141,
        "meta_inclination": 73.8466,
        "meta_ra_of_asc_node": 59.2312,
        "meta_arg_of_pericenter": 10.3044,
        "meta_mean_anomaly": 349.9618,
        "meta_ephemeris_type": 0,
        "meta_classification_type": "U",
        "meta_norad_cat_id": 38006,
        "meta_element_set_no": 999,
        "meta_rev_at_epoch": 62797,
        "meta_bstar": 0.0024598906,
        "meta_mean_motion_dot": 8.963e-05,
        "meta_mean_motion_ddot": 0,
        "tle_line1": "1 38006U 93036BRH 25335.50066024  .00008963  00000+0  24599-2 0  9995",
        "tle_line2": "2 38006  73.8466  59.2312 0074514  10.3044 349.9618 14.45530874627970"
      },
      "geometry": {
        "type": "Point",
        "coordinates": [
          38.39172630380952,
          -45.99827989741148
        ]
      }
    },
    {
      "type": "Feature",
      "properties": {
        "norad_id": 38054,
        "name": "COSMOS 2251 DEB",
        "group": "cosmos-2251-debris",
        "lat": 28.517399270479558,
        "lon": -69.74724311737505,
        "alt_km": 1187.3749978310643,
        "timestamp": "2025-12-03T06:58:43.640063+00:00",
        "meta_object_name": "COSMOS 2251 DEB",
        "meta_object_id": "1993-036BRL",
        "meta_epoch": "2025-11-26T08:10:24.945600",
        "meta_mean_motion": 13.62179263,
        "meta_eccentricity": 0.03616303,
        "meta_inclination": 73.9545,
        "meta_ra_of_asc_node": 292.6204,
        "meta_arg_of_pericenter": 273.8545,
        "meta_mean_anomaly": 241.8921,
        "meta_ephemeris_type": 0,
        "meta_classification_type": "U",
        "meta_norad_cat_id": 38054,
        "meta_element_set_no": 999,
        "meta_rev_at_epoch": 66956,
        "meta_bstar": 0.0037967706,
        "meta_mean_motion_dot": 4.525e-05,
        "meta_mean_motion_ddot": 0,
        "tle_line1": "1 38054U 93036BRL 25330.34056650  .00004525  00000+0  37968-2 0  9993",
        "tle_line2": "2 38054  73.9545 292.6204 0361630 273.8545 241.8921 13.62179263669562"
      },
      "geometry": {
        "type": "Point",
        "coordinates": [
          -69.74724311737505,
          28.517399270479558
        ]
      }
    },
    {
      "type": "Feature",
      "properties": {
        "norad_id": 38055,
        "name": "COSMOS 2251 DEB",
        "group": "cosmos-2251-debris",
        "lat": 23.582195999898907,
        "lon": -127.49914504416805,
        "alt_km": 598.6768886267573,
        "timestamp": "2025-12-03T06:58:43.640073+00:00",
        "meta_object_name": "COSMOS 2251 DEB",
        "meta_object_id": "1993-036BRM",
        "meta_epoch": "2025-11-30T11:23:37.489344",
        "meta_mean_motion": 14.76741647,
        "meta_eccentricity": 0.00655995,
        "meta_inclination": 74.0094,
        "meta_ra_of_asc_node": 230.8354,
        "meta_arg_of_pericenter": 1.0653,
        "meta_mean_anomaly": 178.44,
        "meta_ephemeris_type": 0,
        "meta_classification_type": "U",
        "meta_norad_cat_id": 38055,
        "meta_element_set_no": 999,
        "meta_rev_at_epoch": 60501,
        "meta_bstar": 0.0010104465,
        "meta_mean_motion_dot": 7.307e-05,
        "meta_mean_motion_ddot": 0,
        "tle_line1": "1 38055U 93036BRM 25334.47473946  .00007307  00000+0  10104-2 0  9997",
        "tle_line2": "2 38055  74.0094 230.8354 0065599   1.0653 178.4400 14.76741647605014"
      },
      "geometry": {
        "type": "Point",
        "coordinates": [
          -127.49914504416805,
          23.582195999898907
        ]
      }
    },
    {
      "type": "Feature",
      "properties": {
        "norad_id": 38060,
        "name": "COSMOS 2251 DEB",
        "group": "cosmos-2251-debris",
        "lat": -25.821857447573798,
        "lon": -54.51434873554203,
        "alt_km": 685.4465317798658,
        "timestamp": "2025-12-03T06:58:43.640084+00:00",
        "meta_object_name": "COSMOS 2251 DEB",
        "meta_object_id": "1993-036BRS",
        "meta_epoch": "2025-11-30T16:46:11.567136",
        "meta_mean_motion": 14.63742552,
        "meta_eccentricity": 0.0057629,
        "meta_inclination": 74.0424,
        "meta_ra_of_asc_node": 318.4162,
        "meta_arg_of_pericenter": 67.815,
        "meta_mean_anomaly": 292.9119,
        "meta_ephemeris_type": 0,
        "meta_classification_type": "U",
        "meta_norad_cat_id": 38060,
        "meta_element_set_no": 999,
        "meta_rev_at_epoch": 71788,
        "meta_bstar": 0.00051174098,
        "meta_mean_motion_dot": 2.701e-05,
        "meta_mean_motion_ddot": 0,
        "tle_line1": "1 38060U 93036BRS 25334.69874499  .00002701  00000+0  51174-3 0  9991",
        "tle_line2": "2 38060  74.0424 318.4162 0057629  67.8150 292.9119 14.63742552717884"
      },
      "geometry": {
        "type": "Point",
        "coordinates": [
          -54.51434873554203,
          -25.821857447573798
        ]
      }
    },
    {
      "type": "Feature",
      "properties": {
        "norad_id": 38062,
        "name": "COSMOS 2251 DEB",
        "group": "cosmos-2251-debris",
        "lat": -18.65798133112292,
        "lon": -56.01561471360293,
        "alt_km": 591.1440748417554,
        "timestamp": "2025-12-03T06:58:43.640093+00:00",
        "meta_object_name": "COSMOS 2251 DEB",
        "meta_object_id": "1993-036BRU",
        "meta_epoch": "2025-12-02T15:30:52.155072",
        "meta_mean_motion": 14.9400707,
        "meta_eccentricity": 0.0011947,
        "meta_inclination": 74.0086,
        "meta_ra_of_asc_node": 310.8403,
        "meta_arg_of_pericenter": 79.5377,
        "meta_mean_anomaly": 37.1284,
        "meta_ephemeris_type": 0,
        "meta_classification_type": "U",
        "meta_norad_cat_id": 38062,
        "meta_element_set_no": 999,
        "meta_rev_at_epoch": 62879,
        "meta_bstar": 0.0028464492,
        "meta_mean_motion_dot": 0.00030496,
        "meta_mean_motion_ddot": 0,
        "tle_line1": "1 38062U 93036BRU 25336.64643698  .00030496  00000+0  28464-2 0  9992",
        "tle_line2": "2 38062  74.0086 310.8403 0011947  79.5377  37.1284 14.94007070628794"
      },
      "geometry": {
        "type": "Point",
        "coordinates": [
          -56.01561471360293,
          -18.65798133112292
        ]
      }
    }
  ]
}